{
"type": "FeatureCollection",
"name": "vte-poi",
"crs": { "type": "name", "properties": { "name": "urn:ogc:def:crs:OGC:1.3:CRS84" } },
"features": [
{ "type": "Feature", "id": 1, "properties": { "id": 1, "name_lo":"","name_en": "Presidential Palace" }, "geometry": { "type": "Point", "coordinates": [ 102.609928053641667, 17.962316161473471 ] } },
{ "type": "Feature", "id": 2, "properties": { "id": 2, "name_lo":"","name_en": "BCEL Headquarter" }, "geometry": { "type": "Point", "coordinates": [ 102.606774018963733, 17.96307081881179 ] } },
{ "type": "Feature", "id": 3, "properties": { "id": 3, "name_lo":"","name_en": "Wat Sisaket" }, "geometry": { "type": "Point", "coordinates": [ 102.611359928135883, 17.963138409815762 ] } },
{ "type": "Feature", "id": 4, "properties": { "id": 4, "name_lo":"","name_en": "That Dam Stupa" }, "geometry": { "type": "Point", "coordinates": [ 102.611091520802219, 17.96592647883201 ] } },
{ "type": "Feature", "id": 5, "properties": { "id": 5, "name_lo":"","name_en": "Cultural Hall" }, "geometry": { "type": "Point", "coordinates": [ 102.606646047028647, 17.966136770055883 ] } },
{ "type": "Feature", "id": 6, "properties": { "id": 6, "name_lo":"","name_en": "Nam Phou Fountain" }, "geometry": { "type": "Point", "coordinates": [ 102.608067239455849, 17.964629582202942 ] } },
{ "type": "Feature", "id": 7, "properties": { "id": 7, "name_lo":"","name_en": "Wat Si Muang" }, "geometry": { "type": "Point", "coordinates": [ 102.617138323806429, 17.957903432821826 ] } },
{ "type": "Feature", "id": 8, "properties": { "id": 8, "name_lo":"","name_en": "Mohosot Hospital" }, "geometry": { "type": "Point", "coordinates": [ 102.611955157155492, 17.960602978083394 ] } },
{ "type": "Feature", "id": 9, "properties": { "id": 9, "name_lo":"","name_en": "Night Market" }, "geometry": { "type": "Point", "coordinates": [ 102.602286390453443, 17.963765394767261 ] } },
{ "type": "Feature", "id": 10, "properties": { "id": 10, "name_lo":"","name_en": "Wat Tai Airport" }, "geometry": { "type": "Point", "coordinates": [ 102.568355258143185, 17.975290626032752 ] } },
{ "type": "Feature", "id": 11, "properties": { "id": 11, "name_lo":"","name_en": "Lao Telecom" }, "geometry": { "type": "Point", "coordinates": [ 102.612501710186379, 17.969725623784495 ] } },
{ "type": "Feature", "id": 12, "properties": { "id": 12, "name_lo":"","name_en": "Patuxay" }, "geometry": { "type": "Point", "coordinates": [ 102.618579857196949, 17.970633261768832 ] } },
{ "type": "Feature", "id": 13, "properties": { "id": 13, "name_lo":"","name_en": "That Luang Lake" }, "geometry": { "type": "Point", "coordinates": [ 102.656231716437148, 17.95183833327205 ] } },
{ "type": "Feature", "id": 14, "properties": { "id": 14, "name_lo":"","name_en": "That Luang" }, "geometry": { "type": "Point", "coordinates": [ 102.636358050456806, 17.97673814892498 ] } },
{ "type": "Feature", "id": 15, "properties": { "id": 15, "name_lo":"","name_en": "That Luang Food Market" }, "geometry": { "type": "Point", "coordinates": [ 102.632597300876967, 17.974929168415549 ] } },
{ "type": "Feature", "id": 16, "properties": { "id": 16, "name_lo":"","name_en": "Chi Nai Mo - Clock Tower" }, "geometry": { "type": "Point", "coordinates": [ 102.620614594650007, 17.909310828788698 ] } },
{ "type": "Feature", "id": 17, "properties": { "id": 17, "name_lo":"","name_en": "Suan Mon Market" }, "geometry": { "type": "Point", "coordinates": [ 102.620575011305021, 17.918397338157316 ] } },
{ "type": "Feature", "id": 18, "properties": { "id": 18, "name_lo":"","name_en": "Talat Sao Market" }, "geometry": { "type": "Point", "coordinates": [ 102.614383756715768, 17.965247275673679 ] } },
{ "type": "Feature", "id": 19, "properties": { "id": 19, "name_lo":"","name_en": "Center Point" }, "geometry": { "type": "Point", "coordinates": [ 102.604270751998826, 17.968129198317683 ] } },
{ "type": "Feature", "id": 20, "properties": { "id": 20, "name_lo":"","name_en": "Phonthan Water Tower" }, "geometry": { "type": "Point", "coordinates": [ 102.634983822266591, 17.9571709375499 ] } },
{ "type": "Feature", "id": 21, "properties": { "id": 21, "name_lo":"","name_en": "Beung Kha Nyong Lake" }, "geometry": { "type": "Point", "coordinates": [ 102.619821496269537, 17.950749722918758 ] } },
{ "type": "Feature", "id": 22, "properties": { "id": 22, "name_lo":"","name_en": "Wat That Khao" }, "geometry": { "type": "Point", "coordinates": [ 102.617457682567775, 17.95444130129879 ] } },
{ "type": "Feature", "id": 23, "properties": { "id": 23, "name_lo":"","name_en": "Talat Sao Bus Station" }, "geometry": { "type": "Point", "coordinates": [ 102.615439833308173, 17.963850483891537 ] } },
{ "type": "Feature", "id": 24, "properties": { "id": 24, "name_lo":"","name_en": "Southern Bus Station" }, "geometry": { "type": "Point", "coordinates": [ 102.658239601834381, 18.030735380899689 ] } },
{ "type": "Feature", "id": 25, "properties": { "id": 25, "name_lo":"","name_en": "National Stadium SEA Games" }, "geometry": { "type": "Point", "coordinates": [ 102.703986238581678, 18.062041714301003 ] } },
{ "type": "Feature", "id": 26, "properties": { "id": 26, "name_lo":"","name_en": "Vientiane LCR Station" }, "geometry": { "type": "Point", "coordinates": [ 102.690482704557354, 18.04633067010284 ] } },
{ "type": "Feature", "id": 27, "properties": { "id": 27, "name_lo":"","name_en": "National Convention Center" }, "geometry": { "type": "Point", "coordinates": [ 102.643918064416766, 18.004657735006795 ] } },
{ "type": "Feature", "id": 28, "properties": { "id": 28, "name_lo":"","name_en": "Thong Khan Kham Market" }, "geometry": { "type": "Point", "coordinates": [ 102.607638586041162, 17.974012238408324 ] } },
{ "type": "Feature", "id": 29, "properties": { "id": 29, "name_lo":"","name_en": "Chao Anouvong Stadium" }, "geometry": { "type": "Point", "coordinates": [ 102.608037567896616, 17.968522858470131 ] } },
{ "type": "Feature", "id": 30, "properties": { "id": 30, "name_lo":"","name_en": "Russian Circus" }, "geometry": { "type": "Point", "coordinates": [ 102.60914372166252, 17.980605314466665 ] } },
{ "type": "Feature", "id": 31, "properties": { "id": 31, "name_lo":"","name_en": "Sanjiang Chinese Market" }, "geometry": { "type": "Point", "coordinates": [ 102.580989778215113, 17.974286448623609 ] } },
{ "type": "Feature", "id": 32, "properties": { "id": 32, "name_lo":"","name_en": "Wat Sikhay" }, "geometry": { "type": "Point", "coordinates": [ 102.561882687568968, 17.971827251573352 ] } },
{ "type": "Feature", "id": 33, "properties": { "id": 33, "name_lo":"","name_en": "BeerLao Factory" }, "geometry": { "type": "Point", "coordinates": [ 102.656390006836517, 17.871705079269912 ] } },
{ "type": "Feature", "id": 34, "properties": { "id": 34, "name_lo":"","name_en": "ITTEC" }, "geometry": { "type": "Point", "coordinates": [ 102.643863546749103, 17.96059291024169 ] } },
{ "type": "Feature", "id": 35, "properties": { "id": 35, "name_lo":"","name_en": "Hospital 103" }, "geometry": { "type": "Point", "coordinates": [ 102.633118001317669, 17.947153351781228 ] } },
{ "type": "Feature", "id": 36, "properties": { "id": 36, "name_lo":"","name_en": "EDL" }, "geometry": { "type": "Point", "coordinates": [ 102.627494965802711, 17.940979630985115 ] } },
{ "type": "Feature", "id": 37, "properties": { "id": 37, "name_lo":"","name_en": "Faculty of Engineering" }, "geometry": { "type": "Point", "coordinates": [ 102.625813765802249, 17.939276605539465 ] } },
{ "type": "Feature", "id": 38, "properties": { "id": 38, "name_lo":"","name_en": "Polytechnic School" }, "geometry": { "type": "Point", "coordinates": [ 102.629347605503256, 17.943786614364317 ] } },
{ "type": "Feature", "id": 39, "properties": { "id": 39, "name_lo":"","name_en": "Wat Sok Pa Luang" }, "geometry": { "type": "Point", "coordinates": [ 102.626903134083861, 17.945316637181154 ] } },
{ "type": "Feature", "id": 40, "properties": { "id": 40, "name_lo":"","name_en": "Russian Embassy" }, "geometry": { "type": "Point", "coordinates": [ 102.620635088393712, 17.929677370618968 ] } },
{ "type": "Feature", "id": 41, "properties": { "id": 41, "name_lo":"","name_en": "Chinese Ambassy" }, "geometry": { "type": "Point", "coordinates": [ 102.623209926026092, 17.934071182289021 ] } },
{ "type": "Feature", "id": 42, "properties": { "id": 42, "name_lo":"","name_en": "Lao German College" }, "geometry": { "type": "Point", "coordinates": [ 102.618460686407687, 17.938747112215768 ] } },
{ "type": "Feature", "id": 43, "properties": { "id": 43, "name_lo":"","name_en": "Chao Anouvong Statue" }, "geometry": { "type": "Point", "coordinates": [ 102.608422111772313, 17.96042056063223 ] } },
{ "type": "Feature", "id": 44, "properties": { "id": 44, "name_lo":"","name_en": "Don Chan Island" }, "geometry": { "type": "Point", "coordinates": [ 102.610122032170878, 17.955265863814972 ] } },
{ "type": "Feature", "id": 45, "properties": { "id": 45, "name_lo":"","name_en": "Thadeua Water Tower" }, "geometry": { "type": "Point", "coordinates": [ 102.61915074901529, 17.949545806833079 ] } },
{ "type": "Feature", "id": 46, "properties": { "id": 46, "name_lo":"","name_en": "Saint Pilla Convention Hall" }, "geometry": { "type": "Point", "coordinates": [ 102.604911802829989, 17.984261370384168 ] } },
{ "type": "Feature", "id": 47, "properties": { "id": 47, "name_lo":"","name_en": "Northern Bus Station" }, "geometry": { "type": "Point", "coordinates": [ 102.552267228893953, 18.008825967291198 ] } },
{ "type": "Feature", "id": 48, "properties": { "id": 48, "name_lo":"","name_en": "Thai Embassy" }, "geometry": { "type": "Point", "coordinates": [ 102.621367214590933, 17.973593119623942 ] } },
{ "type": "Feature", "id": 49, "properties": { "id": 49, "name_lo":"","name_en": "ICBC Bank" }, "geometry": { "type": "Point", "coordinates": [ 102.625075655578911, 17.976805722095687 ] } },
{ "type": "Feature", "id": 50, "properties": { "id": 50, "name_lo":"","name_en": "Water  Tower Av Kaysone Phomvihane" }, "geometry": { "type": "Point", "coordinates": [ 102.63293679586549, 17.982782805206458 ] } },
{ "type": "Feature", "id": 51, "properties": { "id": 51, "name_lo":"","name_en": "Dongpalan Roundabout" }, "geometry": { "type": "Point", "coordinates": [ 102.623769986906979, 17.958476968762636 ] } },
{ "type": "Feature", "id": 52, "properties": { "id": 52, "name_lo":"","name_en": "Khouvieng Malls" }, "geometry": { "type": "Point", "coordinates": [ 102.618291473704687, 17.961700732553393 ] } },
{ "type": "Feature", "id": 53, "properties": { "id": 53, "name_lo":"","name_en": "Thai Consulate Bourichane" }, "geometry": { "type": "Point", "coordinates": [ 102.624388346277385, 17.964937693038031 ] } },
{ "type": "Feature", "id": 54, "properties": { "id": 54, "name_lo":"","name_en": "Town Hall Nongbone Road" }, "geometry": { "type": "Point", "coordinates": [ 102.619801552533005, 17.967957850694646 ] } },
{ "type": "Feature", "id": 55, "properties": { "id": 55, "name_lo":"","name_en": "Setthathirath Hospital" }, "geometry": { "type": "Point", "coordinates": [ 102.649132147302979, 17.934679559212448 ] } },
{ "type": "Feature", "id": 55, "properties": { "id": 55, "name_lo":"","name_en": "US Embassy" }, "geometry": { "type": "Point", "coordinates": [ 102.640166879053254, 17.896302630787499 ] } },
{ "type": "Feature", "id": 56, "properties": { "id": 56, "name_lo":"","name_en": "Mittaphab Hospital 150" }, "geometry": { "type": "Point", "coordinates": [ 102.627058791546148, 18.004406176571532 ] } },
{ "type": "Feature", "id": 57, "properties": { "id": 57, "name_lo":"","name_en": "Don Dok University" }, "geometry": { "type": "Point", "coordinates": [ 102.63574221611934, 18.03748840288765 ] } },
{ "type": "Feature", "id": 58, "properties": { "id": 58, "name_lo":"","name_en": "Nonghta Lake" }, "geometry": { "type": "Point", "coordinates": [ 102.614725538493872, 18.006102894356161 ] } },
{ "type": "Feature", "id": 59, "properties": { "id": 59, "name_lo":"","name_en": "Vientiane International School VIS" }, "geometry": { "type": "Point", "coordinates": [ 102.624935066452295, 17.948923505014474 ] } },
{ "type": "Feature", "id": 60, "properties": { "id": 60, "name_lo":"","name_en": "Wat Donnokhoum" }, "geometry": { "type": "Point", "coordinates": [ 102.634016277083958, 17.929712889208616 ] } },
{ "type": "Feature", "id": 61, "properties": { "id": 61, "name_lo":"","name_en": "Kasemrad Hospital" }, "geometry": { "type": "Point", "coordinates": [ 102.642746832706763, 17.939655655426481 ] } },
{ "type": "Feature", "id": 62, "properties": { "id": 62, "name_lo":"","name_en": "Naxay Church" }, "geometry": { "type": "Point", "coordinates": [ 102.634436686046087, 17.966505271747096 ] } },
{ "type": "Feature", "id": 63, "properties": { "id": 63, "name_lo":"","name_en": "Japanese Ambassy" }, "geometry": { "type": "Point", "coordinates": [ 102.632989762824195, 17.970561369873327 ] } },
{ "type": "Feature", "id": 64, "properties": { "id": 64, "name_lo":"","name_en": "UNITEL Headquarter Nongbone Road" }, "geometry": { "type": "Point", "coordinates": [ 102.625150926659288, 17.969164405563987 ] } },
{ "type": "Feature", "id": 65, "properties": { "id": 65, "name_lo":"","name_en": "Joma Thaht Luang" }, "geometry": { "type": "Point", "coordinates": [ 102.631012143984222, 17.9748239019967 ] } },
{ "type": "Feature", "id": 66, "properties": { "id": 66, "name_lo":"","name_en": "Lao Tobacco Factory" }, "geometry": { "type": "Point", "coordinates": [ 102.63182656852085, 17.902038479520495 ] } },
{ "type": "Feature", "id": 67, "properties": { "id": 67, "name_lo":"","name_en": "Sivilay Market" }, "geometry": { "type": "Point", "coordinates": [ 102.63292754983884, 18.011893415106638 ] } },
{ "type": "Feature", "id": 68, "properties": { "id": 68, "name_lo":"","name_en": "Lao National TV Eiffel Tower" }, "geometry": { "type": "Point", "coordinates": [ 102.632852140159471, 18.006950310627435 ] } },
{ "type": "Feature", "id": 69, "properties": { "id": 69, "name_lo":"","name_en": "Meteorogical Tower" }, "geometry": { "type": "Point", "coordinates": [ 102.570082065717472, 17.969768625619491 ] } },
{ "type": "Feature", "id": 70, "properties": { "id": 70, "name_lo":"","name_en": "Ban Anou Night Market" }, "geometry": { "type": "Point", "coordinates": [ 102.605833794681459, 17.969333134721452 ] } },
{ "type": "Feature", "id": 71, "properties": { "id": 71, "name_lo":"","name_en": "Fa Ngum Statue - Samsenthai/Setthatirath" }, "geometry": { "type": "Point", "coordinates": [ 102.596013569192436, 17.968476763550825 ] } }
]
}
